{
  "type": "FeatureCollection",
  "features": [
    {
      "type": "Feature",
      "properties": {
        "norad_id": 25590,
        "name": "COSMOS 2361",
        "group": "musson",
        "lat": -39.18120908187738,
        "lon": -31.14154529959886,
        "alt_km": 995.1022558838358,
        "timestamp": "2025-12-25T11:37:44.705128+00:00",
        "meta_object_name": "COSMOS 2361",
        "meta_object_id": "1998-076A",
        "meta_epoch": "2025-12-25T01:40:40.592064",
        "meta_mean_motion": 13.73218824,
        "meta_eccentricity": 0.0030318,
        "meta_inclination": 82.9345,
        "meta_ra_of_asc_node": 334.9664,
        "meta_arg_of_pericenter": 229.9139,
        "meta_mean_anomaly": 201.6823,
        "meta_ephemeris_type": 0,
        "meta_classification_type": "U",
        "meta_norad_cat_id": 25590,
        "meta_element_set_no": 999,
        "meta_rev_at_epoch": 35280,
        "meta_bstar": 4.9102e-05,
        "meta_mean_motion_dot": 6e-07,
        "meta_mean_motion_ddot": 0,
        "tle_line1": "1 25590U 98076A   25359.06991426  .00000060  00000+0  49102-4 0  9997",
        "tle_line2": "2 25590  82.9345 334.9664 0030318 229.9139 201.6823 13.73218824352808"
      },
      "geometry": {
        "type": "Point",
        "coordinates": [
          -31.14154529959886,
          -39.18120908187738
        ]
      }
    },
    {
      "type": "Feature",
      "properties": {
        "norad_id": 26818,
        "name": "COSMOS 2378",
        "group": "musson",
        "lat": 73.25715592083905,
        "lon": 14.648228397770097,
        "alt_km": 979.51172792753,
        "timestamp": "2025-12-25T11:37:44.705149+00:00",
        "meta_object_name": "COSMOS 2378",
        "meta_object_id": "2001-023A",
        "meta_epoch": "2025-12-25T02:52:27.994080",
        "meta_mean_motion": 13.7414296,
        "meta_eccentricity": 0.0033185,
        "meta_inclination": 82.9272,
        "meta_ra_of_asc_node": 350.5445,
        "meta_arg_of_pericenter": 170.2004,
        "meta_mean_anomaly": 261.4901,
        "meta_ephemeris_type": 0,
        "meta_classification_type": "U",
        "meta_norad_cat_id": 26818,
        "meta_element_set_no": 999,
        "meta_rev_at_epoch": 23093,
        "meta_bstar": 3.3957e-05,
        "meta_mean_motion_dot": 4.7e-07,
        "meta_mean_motion_ddot": 0,
        "tle_line1": "1 26818U 01023A   25359.11976845  .00000047  00000+0  33957-4 0  9997",
        "tle_line2": "2 26818  82.9272 350.5445 0033185 170.2004 261.4901 13.74142960230934"
      },
      "geometry": {
        "type": "Point",
        "coordinates": [
          14.648228397770097,
          73.25715592083905
        ]
      }
    },
    {
      "type": "Feature",
      "properties": {
        "norad_id": 27436,
        "name": "COSMOS 2389",
        "group": "musson",
        "lat": -31.787524170306675,
        "lon": -66.84691597467534,
        "alt_km": 968.5813434935635,
        "timestamp": "2025-12-25T11:37:44.705162+00:00",
        "meta_object_name": "COSMOS 2389",
        "meta_object_id": "2002-026A",
        "meta_epoch": "2025-12-24T22:06:49.893984",
        "meta_mean_motion": 13.75155957,
        "meta_eccentricity": 0.0047094,
        "meta_inclination": 82.9513,
        "meta_ra_of_asc_node": 297.9672,
        "meta_arg_of_pericenter": 27.4918,
        "meta_mean_anomaly": 34.7494,
        "meta_ephemeris_type": 0,
        "meta_classification_type": "U",
        "meta_norad_cat_id": 27436,
        "meta_element_set_no": 999,
        "meta_rev_at_epoch": 18316,
        "meta_bstar": 6.8126e-05,
        "meta_mean_motion_dot": 8.1e-07,
        "meta_mean_motion_ddot": 0,
        "tle_line1": "1 27436U 02026A   25358.92141081  .00000081  00000+0  68126-4 0  9996",
        "tle_line2": "2 27436  82.9513 297.9672 0047094  27.4918  34.7494 13.75155957183167"
      },
      "geometry": {
        "type": "Point",
        "coordinates": [
          -66.84691597467534,
          -31.787524170306675
        ]
      }
    },
    {
      "type": "Feature",
      "properties": {
        "norad_id": 27818,
        "name": "COSMOS 2398",
        "group": "musson",
        "lat": 25.03302063929137,
        "lon": 79.99314590830059,
        "alt_km": 984.6473737076303,
        "timestamp": "2025-12-25T11:37:44.705174+00:00",
        "meta_object_name": "COSMOS 2398",
        "meta_object_id": "2003-023A",
        "meta_epoch": "2025-12-25T04:36:51.041952",
        "meta_mean_motion": 13.72387085,
        "meta_eccentricity": 0.0032699,
        "meta_inclination": 82.9483,
        "meta_ra_of_asc_node": 263.5223,
        "meta_arg_of_pericenter": 78.6357,
        "meta_mean_anomaly": 72.3991,
        "meta_ephemeris_type": 0,
        "meta_classification_type": "U",
        "meta_norad_cat_id": 27818,
        "meta_element_set_no": 999,
        "meta_rev_at_epoch": 12987,
        "meta_bstar": 7.0833e-05,
        "meta_mean_motion_dot": 8e-07,
        "meta_mean_motion_ddot": 0,
        "tle_line1": "1 27818U 03023A   25359.19225743  .00000080  00000+0  70833-4 0  9993",
        "tle_line2": "2 27818  82.9483 263.5223 0032699  78.6357  72.3991 13.72387085129872"
      },
      "geometry": {
        "type": "Point",
        "coordinates": [
          79.99314590830059,
          25.03302063929137
        ]
      }
    },
    {
      "type": "Feature",
      "properties": {
        "norad_id": 28380,
        "name": "COSMOS 2407",
        "group": "musson",
        "lat": 9.585227904752115,
        "lon": 22.260247632164006,
        "alt_km": 1003.9121644079387,
        "timestamp": "2025-12-25T11:37:44.705185+00:00",
        "meta_object_name": "COSMOS 2407",
        "meta_object_id": "2004-028A",
        "meta_epoch": "2025-12-25T02:40:13.473120",
        "meta_mean_motion": 13.76315024,
        "meta_eccentricity": 0.003974,
        "meta_inclination": 82.9593,
        "meta_ra_of_asc_node": 203.7325,
        "meta_arg_of_pericenter": 21.0232,
        "meta_mean_anomaly": 100.5296,
        "meta_ephemeris_type": 0,
        "meta_classification_type": "U",
        "meta_norad_cat_id": 28380,
        "meta_element_set_no": 999,
        "meta_rev_at_epoch": 7593,
        "meta_bstar": 3.7652e-05,
        "meta_mean_motion_dot": 5.2e-07,
        "meta_mean_motion_ddot": 0,
        "tle_line1": "1 28380U 04028A   25359.11126705  .00000052  00000+0  37652-4 0  9995",
        "tle_line2": "2 28380  82.9593 203.7325 0039740  21.0232 100.5296 13.76315024 75933"
      },
      "geometry": {
        "type": "Point",
        "coordinates": [
          22.260247632164006,
          9.585227904752115
        ]
      }
    },
    {
      "type": "Feature",
      "properties": {
        "norad_id": 28521,
        "name": "COSMOS 2414",
        "group": "musson",
        "lat": -63.941560427356286,
        "lon": 9.683748196153674,
        "alt_km": 966.5227774319965,
        "timestamp": "2025-12-25T11:37:44.705196+00:00",
        "meta_object_name": "COSMOS 2414",
        "meta_object_id": "2005-002A",
        "meta_epoch": "2025-12-25T00:04:31.766016",
        "meta_mean_motion": 13.87904522,
        "meta_eccentricity": 0.0041415,
        "meta_inclination": 82.9488,
        "meta_ra_of_asc_node": 175.3864,
        "meta_arg_of_pericenter": 105.6791,
        "meta_mean_anomaly": 254.8947,
        "meta_ephemeris_type": 0,
        "meta_classification_type": "U",
        "meta_norad_cat_id": 28521,
        "meta_element_set_no": 999,
        "meta_rev_at_epoch": 5965,
        "meta_bstar": 4.4726e-05,
        "meta_mean_motion_dot": 7e-07,
        "meta_mean_motion_ddot": 0,
        "tle_line1": "1 28521U 05002A   25359.00314544  .00000070  00000+0  44726-4 0  9993",
        "tle_line2": "2 28521  82.9488 175.3864 0041415 105.6791 254.8947 13.87904522 59652"
      },
      "geometry": {
        "type": "Point",
        "coordinates": [
          9.683748196153674,
          -63.941560427356286
        ]
      }
    },
    {
      "type": "Feature",
      "properties": {
        "norad_id": 32052,
        "name": "COSMOS 2429",
        "group": "musson",
        "lat": 25.39482030655541,
        "lon": 150.56027860778855,
        "alt_km": 1005.1793809881938,
        "timestamp": "2025-12-25T11:37:44.705206+00:00",
        "meta_object_name": "COSMOS 2429",
        "meta_object_id": "2007-038A",
        "meta_epoch": "2025-12-25T00:24:17.509248",
        "meta_mean_motion": 13.75150565,
        "meta_eccentricity": 0.0038511,
        "meta_inclination": 82.9808,
        "meta_ra_of_asc_node": 334.2578,
        "meta_arg_of_pericenter": 4.0546,
        "meta_mean_anomaly": 356.0915,
        "meta_ephemeris_type": 0,
        "meta_classification_type": "U",
        "meta_norad_cat_id": 32052,
        "meta_element_set_no": 999,
        "meta_rev_at_epoch": 91771,
        "meta_bstar": 4.6346e-05,
        "meta_mean_motion_dot": 6e-07,
        "meta_mean_motion_ddot": 0,
        "tle_line1": "1 32052U 07038A   25359.01686932  .00000060  00000+0  46346-4 0  9991",
        "tle_line2": "2 32052  82.9808 334.2578 0038511   4.0546 356.0915 13.75150565917710"
      },
      "geometry": {
        "type": "Point",
        "coordinates": [
          150.56027860778855,
          25.39482030655541
        ]
      }
    },
    {
      "type": "Feature",
      "properties": {
        "norad_id": 35635,
        "name": "COSMOS 2454",
        "group": "musson",
        "lat": 27.1366292842217,
        "lon": 162.61697215737826,
        "alt_km": 913.4470974700198,
        "timestamp": "2025-12-25T11:37:44.705217+00:00",
        "meta_object_name": "COSMOS 2454",
        "meta_object_id": "2009-039A",
        "meta_epoch": "2025-12-24T23:57:14.333184",
        "meta_mean_motion": 13.89930197,
        "meta_eccentricity": 0.0020005,
        "meta_inclination": 82.9558,
        "meta_ra_of_asc_node": 159.3524,
        "meta_arg_of_pericenter": 40.6876,
        "meta_mean_anomaly": 74.0739,
        "meta_ephemeris_type": 0,
        "meta_classification_type": "U",
        "meta_norad_cat_id": 35635,
        "meta_element_set_no": 999,
        "meta_rev_at_epoch": 83320,
        "meta_bstar": 5.6949e-05,
        "meta_mean_motion_dot": 8.6e-07,
        "meta_mean_motion_ddot": 0,
        "tle_line1": "1 35635U 09039A   25358.99808256  .00000086  00000+0  56949-4 0  9993",
        "tle_line2": "2 35635  82.9558 159.3524 0020005  40.6876  74.0739 13.89930197833204"
      },
      "geometry": {
        "type": "Point",
        "coordinates": [
          162.61697215737826,
          27.1366292842217
        ]
      }
    },
    {
      "type": "Feature",
      "properties": {
        "norad_id": 36519,
        "name": "COSMOS 2463",
        "group": "musson",
        "lat": -49.0816058299337,
        "lon": 9.1508829030942,
        "alt_km": 987.2460412295995,
        "timestamp": "2025-12-25T11:37:44.705227+00:00",
        "meta_object_name": "COSMOS 2463",
        "meta_object_id": "2010-017A",
        "meta_epoch": "2025-12-24T23:55:31.766880",
        "meta_mean_motion": 13.71650199,
        "meta_eccentricity": 0.0034804,
        "meta_inclination": 82.9603,
        "meta_ra_of_asc_node": 17.7047,
        "meta_arg_of_pericenter": 252.7721,
        "meta_mean_anomaly": 170.7477,
        "meta_ephemeris_type": 0,
        "meta_classification_type": "U",
        "meta_norad_cat_id": 36519,
        "meta_element_set_no": 999,
        "meta_rev_at_epoch": 78405,
        "meta_bstar": 3.3999e-05,
        "meta_mean_motion_dot": 4.6e-07,
        "meta_mean_motion_ddot": 0,
        "tle_line1": "1 36519U 10017A   25358.99689545  .00000046  00000+0  33999-4 0  9997",
        "tle_line2": "2 36519  82.9603  17.7047 0034804 252.7721 170.7477 13.71650199784054"
      },
      "geometry": {
        "type": "Point",
        "coordinates": [
          9.1508829030942,
          -49.0816058299337
        ]
      }
    }
  ]
}